{"cacheKey":"","cacheExpires":"07/09/2024 10:19:18","success":true,"payerOptions":[{"Id":"60054","City":"El Paso ","Zip":"79998","State":"TX","GatewayName":"","Address":"PO Box 981106","IdType":"PI","Address2":"","formattedAddress":"PO Box 981106 , El Paso , TX 79998"},{"Id":"60054","City":"El Paso ","Zip":"79998","State":"TX","GatewayName":"","Address":"PO Box 981106","IdType":"PI","Address2":"","formattedAddress":"PO Box 981106 , El Paso , TX 79998"},{"Id":"60054","City":"El Paso ","Zip":"79998","State":"TX","GatewayName":"","Address":"PO Box 981106","IdType":"PI","Address2":"","formattedAddress":"PO Box 981106 , El Paso , TX 79998"},{"Id":"60054","City":"El Paso ","Zip":"79998","State":"TX","GatewayName":"","Address":"PO Box 981106","IdType":"PI","Address2":"","formattedAddress":"PO Box 981106 , El Paso , TX 79998"},{"Id":"60054","City":"El Paso ","Zip":"79998","State":"TX","GatewayName":"","Address":"PO Box 981106","IdType":"PI","Address2":"","formattedAddress":"PO Box 981106 , El Paso , TX 79998"},{"Id":"60054","City":"El Paso ","Zip":"79998","State":"TX","GatewayName":"","Address":"PO Box 981106","IdType":"PI","Address2":"","formattedAddress":"PO Box 981106 , El Paso , TX 79998"},{"Id":"60054","City":"El Paso ","Zip":"79998","State":"TX","GatewayName":"","Address":"PO Box 981106","IdType":"PI","Address2":"","formattedAddress":"PO Box 981106 , El Paso , TX 79998"},{"Id":"60054","City":"El Paso ","Zip":"79998","State":"TX","GatewayName":"","Address":"PO Box 981106","IdType":"PI","Address2":"","formattedAddress":"PO Box 981106 , El Paso , TX 79998"},{"Id":"60054","City":"El Paso ","Zip":"79998","State":"TX","GatewayName":"","Address":"PO Box 981106","IdType":"PI","Address2":"","formattedAddress":"PO Box 981106 , El Paso , TX 79998"},{"Id":"60054","City":"El Paso ","Zip":"79998","State":"TX","GatewayName":"","Address":"PO Box 981106","IdType":"PI","Address2":"","formattedAddress":"PO Box 981106 , El Paso , TX 79998"},{"Id":"60054","City":"El Paso ","Zip":"79998","State":"TX","GatewayName":"","Address":"PO Box 981106","IdType":"PI","Address2":"","formattedAddress":"PO Box 981106 , El Paso , TX 79998"},{"Id":"60054","City":"El Paso ","Zip":"79998","State":"TX","GatewayName":"","Address":"PO Box 981106","IdType":"PI","Address2":"","formattedAddress":"PO Box 981106 , El Paso , TX 79998"},{"Id":"60054","City":"El Paso ","Zip":"79998","State":"TX","GatewayName":"","Address":"PO Box 981106","IdType":"PI","Address2":"","formattedAddress":"PO Box 981106 , El Paso , TX 79998"},{"Id":"60054","City":"El Paso ","Zip":"79998","State":"TX","GatewayName":"","Address":"PO Box 981106","IdType":"PI","Address2":"","formattedAddress":"PO Box 981106 , El Paso , TX 79998"},{"Id":"60054","City":"El Paso ","Zip":"79998","State":"TX","GatewayName":"","Address":"PO Box 981106","IdType":"PI","Address2":"","formattedAddress":"PO Box 981106 , El Paso , TX 79998"},{"Id":"60054","City":"El Paso ","Zip":"79998","State":"TX","GatewayName":"","Address":"PO Box 981106","IdType":"PI","Address2":"","formattedAddress":"PO Box 981106 , El Paso , TX 79998"},{"Id":"60054","City":"El Paso ","Zip":"79998","State":"TX","GatewayName":"","Address":"PO Box 981106","IdType":"PI","Address2":"","formattedAddress":"PO Box 981106 , El Paso , TX 79998"},{"Id":"60054","City":"El Paso ","Zip":"79998","State":"TX","GatewayName":"","Address":"PO Box 981106","IdType":"PI","Address2":"","formattedAddress":"PO Box 981106 , El Paso , TX 79998"},{"Id":"60054","City":"El Paso ","Zip":"79998","State":"TX","GatewayName":"","Address":"PO Box 981106","IdType":"PI","Address2":"","formattedAddress":"PO Box 981106 , El Paso , TX 79998"},{"Id":"60054","City":"El Paso ","Zip":"79998","State":"TX","GatewayName":"","Address":"PO Box 981106","IdType":"PI","Address2":"","formattedAddress":"PO Box 981106 , El Paso , TX 79998"},{"Id":"60054","City":"El Paso ","Zip":"79998","State":"TX","GatewayName":"","Address":"PO Box 981106","IdType":"PI","Address2":"","formattedAddress":"PO Box 981106 , El Paso , TX 79998"},{"Id":"60054","City":"El Paso ","Zip":"79998","State":"TX","GatewayName":"","Address":"PO Box 981106","IdType":"PI","Address2":"","formattedAddress":"PO Box 981106 , El Paso , TX 79998"},{"Id":"60054","City":"El Paso ","Zip":"79998","State":"TX","GatewayName":"","Address":"PO Box 981106","IdType":"PI","Address2":"","formattedAddress":"PO Box 981106 , El Paso , TX 79998"},{"Id":"60054","City":"El Paso ","Zip":"79998","State":"TX","GatewayName":"","Address":"PO Box 981106","IdType":"PI","Address2":"","formattedAddress":"PO Box 981106 , El Paso , TX 79998"},{"Id":"60054","City":"El Paso ","Zip":"79998","State":"TX","GatewayName":"","Address":"PO Box 981106","IdType":"PI","Address2":"","formattedAddress":"PO Box 981106 , El Paso , TX 79998"},{"Id":"60054","City":"El Paso ","Zip":"79998","State":"TX","GatewayName":"","Address":"PO Box 981106","IdType":"PI","Address2":"","formattedAddress":"PO Box 981106 , El Paso , TX 79998"},{"Id":"60054","City":"El Paso ","Zip":"79998","State":"TX","GatewayName":"","Address":"PO Box 981106","IdType":"PI","Address2":"","formattedAddress":"PO Box 981106 , El Paso , TX 79998"},{"Id":"60054","City":"El Paso ","Zip":"79998","State":"TX","GatewayName":"","Address":"PO Box 981106","IdType":"PI","Address2":"","formattedAddress":"PO Box 981106 , El Paso , TX 79998"},{"Id":"60054","City":"El Paso ","Zip":"79998","State":"TX","GatewayName":"","Address":"PO Box 981106","IdType":"PI","Address2":"","formattedAddress":"PO Box 981106 , El Paso , TX 79998"},{"Id":"60054","City":"El Paso ","Zip":"79998","State":"TX","GatewayName":"","Address":"PO Box 981106","IdType":"PI","Address2":"","formattedAddress":"PO Box 981106 , El Paso , TX 79998"},{"Id":"60054","City":"El Paso ","Zip":"79998","State":"TX","GatewayName":"","Address":"PO Box 981106","IdType":"PI","Address2":"","formattedAddress":"PO Box 981106 , El Paso , TX 79998"},{"Id":"60054","City":"El Paso ","Zip":"79998","State":"TX","GatewayName":"","Address":"PO Box 981106","IdType":"PI","Address2":"","formattedAddress":"PO Box 981106 , El Paso , TX 79998"},{"Id":"60054","City":"El Paso ","Zip":"79998","State":"TX","GatewayName":"","Address":"PO Box 981106","IdType":"PI","Address2":"","formattedAddress":"PO Box 981106 , El Paso , TX 79998"},{"Id":"60054","City":"El Paso ","Zip":"79998","State":"TX","GatewayName":"","Address":"PO Box 981106","IdType":"PI","Address2":"","formattedAddress":"PO Box 981106 , El Paso , TX 79998"},{"Id":"60054","City":"El Paso ","Zip":"79998","State":"TX","GatewayName":"","Address":"PO Box 981106","IdType":"PI","Address2":"","formattedAddress":"PO Box 981106 , El Paso , TX 79998"},{"Id":"60054","City":"El Paso ","Zip":"79998","State":"TX","GatewayName":"","Address":"PO Box 981106","IdType":"PI","Address2":"","formattedAddress":"PO Box 981106 , El Paso , TX 79998"},{"Id":"60054","City":"El Paso ","Zip":"79998","State":"TX","GatewayName":"","Address":"PO Box 981106","IdType":"PI","Address2":"","formattedAddress":"PO Box 981106 , El Paso , TX 79998"},{"Id":"60054","City":"El Paso ","Zip":"79998","State":"TX","GatewayName":"","Address":"PO Box 981106","IdType":"PI","Address2":"","formattedAddress":"PO Box 981106 , El Paso , TX 79998"},{"Id":"60054","City":"El Paso ","Zip":"79998","State":"TX","GatewayName":"","Address":"PO Box 981106","IdType":"PI","Address2":"","formattedAddress":"PO Box 981106 , El Paso , TX 79998"},{"Id":"60054","City":"El Paso ","Zip":"79998","State":"TX","GatewayName":"","Address":"PO Box 981106","IdType":"PI","Address2":"","formattedAddress":"PO Box 981106 , El Paso , TX 79998"},{"Id":"60054","City":"El Paso ","Zip":"79998","State":"TX","GatewayName":"","Address":"PO Box 981106","IdType":"PI","Address2":"","formattedAddress":"PO Box 981106 , El Paso , TX 79998"},{"Id":"60054","City":"El Paso ","Zip":"79998","State":"TX","GatewayName":"","Address":"PO Box 981106","IdType":"PI","Address2":"","formattedAddress":"PO Box 981106 , El Paso , TX 79998"},{"Id":"60054","City":"El Paso ","Zip":"79998","State":"TX","GatewayName":"","Address":"PO Box 981106","IdType":"PI","Address2":"","formattedAddress":"PO Box 981106 , El Paso , TX 79998"},{"Id":"60054","City":"El Paso ","Zip":"79998","State":"TX","GatewayName":"","Address":"PO Box 981106","IdType":"PI","Address2":"","formattedAddress":"PO Box 981106 , El Paso , TX 79998"},{"Id":"60054","City":"El Paso ","Zip":"79998","State":"TX","GatewayName":"","Address":"PO Box 981106","IdType":"PI","Address2":"","formattedAddress":"PO Box 981106 , El Paso , TX 79998"},{"Id":"60054","City":"El Paso ","Zip":"79998","State":"TX","GatewayName":"","Address":"PO Box 981106","IdType":"PI","Address2":"","formattedAddress":"PO Box 981106 , El Paso , TX 79998"},{"Id":"60054","City":"El Paso ","Zip":"79998","State":"TX","GatewayName":"","Address":"PO Box 981106","IdType":"PI","Address2":"","formattedAddress":"PO Box 981106 , El Paso , TX 79998"},{"Id":"60054","City":"El Paso ","Zip":"79998","State":"TX","GatewayName":"","Address":"PO Box 981106","IdType":"PI","Address2":"","formattedAddress":"PO Box 981106 , El Paso , TX 79998"},{"Id":"60054","City":"El Paso ","Zip":"79998","State":"TX","GatewayName":"","Address":"PO Box 981106","IdType":"PI","Address2":"","formattedAddress":"PO Box 981106 , El Paso , TX 79998"},{"Id":"60054","City":"El Paso ","Zip":"79998","State":"TX","GatewayName":"","Address":"PO Box 981106","IdType":"PI","Address2":"","formattedAddress":"PO Box 981106 , El Paso , TX 79998"},{"Id":"60054","City":"El Paso ","Zip":"79998","State":"TX","GatewayName":"","Address":"PO Box 981106","IdType":"PI","Address2":"","formattedAddress":"PO Box 981106 , El Paso , TX 79998"},{"Id":"60054","City":"El Paso ","Zip":"79998","State":"TX","GatewayName":"","Address":"PO Box 981106","IdType":"PI","Address2":"","formattedAddress":"PO Box 981106 , El Paso , TX 79998"},{"Id":"60054","City":"El Paso ","Zip":"79998","State":"TX","GatewayName":"","Address":"PO Box 981106","IdType":"PI","Address2":"","formattedAddress":"PO Box 981106 , El Paso , TX 79998"},{"Id":"60054","City":"El Paso ","Zip":"79998","State":"TX","GatewayName":"","Address":"PO Box 981106","IdType":"PI","Address2":"","formattedAddress":"PO Box 981106 , El Paso , TX 79998"},{"Id":"60054","City":"El Paso ","Zip":"79998","State":"TX","GatewayName":"","Address":"PO Box 981106","IdType":"PI","Address2":"","formattedAddress":"PO Box 981106 , El Paso , TX 79998"},{"Id":"60054","City":"El Paso ","Zip":"79998","State":"TX","GatewayName":"","Address":"PO Box 981106","IdType":"PI","Address2":"","formattedAddress":"PO Box 981106 , El Paso , TX 79998"},{"Id":"60054","City":"El Paso ","Zip":"79998","State":"TX","GatewayName":"","Address":"PO Box 981106","IdType":"PI","Address2":"","formattedAddress":"PO Box 981106 , El Paso , TX 79998"},{"Id":"60054","City":"El Paso ","Zip":"79998","State":"TX","GatewayName":"","Address":"PO Box 981106","IdType":"PI","Address2":"","formattedAddress":"PO Box 981106 , El Paso , TX 79998"},{"Id":"60054","City":"El Paso ","Zip":"79998","State":"TX","GatewayName":"","Address":"PO Box 981106","IdType":"PI","Address2":"","formattedAddress":"PO Box 981106 , El Paso , TX 79998"},{"Id":"60054","City":"El Paso ","Zip":"79998","State":"TX","GatewayName":"","Address":"PO Box 981106","IdType":"PI","Address2":"","formattedAddress":"PO Box 981106 , El Paso , TX 79998"},{"Id":"60054","City":"El Paso ","Zip":"79998","State":"TX","GatewayName":"","Address":"PO Box 981106","IdType":"PI","Address2":"","formattedAddress":"PO Box 981106 , El Paso , TX 79998"},{"Id":"60054","City":"El Paso ","Zip":"79998","State":"TX","GatewayName":"","Address":"PO Box 981106","IdType":"PI","Address2":"","formattedAddress":"PO Box 981106 , El Paso , TX 79998"},{"Id":"60054","City":"El Paso ","Zip":"79998","State":"TX","GatewayName":"","Address":"PO Box 981106","IdType":"PI","Address2":"","formattedAddress":"PO Box 981106 , El Paso , TX 79998"},{"Id":"60054","City":"El Paso ","Zip":"79998","State":"TX","GatewayName":"","Address":"PO Box 981106","IdType":"PI","Address2":"","formattedAddress":"PO Box 981106 , El Paso , TX 79998"},{"Id":"60054","City":"El Paso ","Zip":"79998","State":"TX","GatewayName":"","Address":"PO Box 981106","IdType":"PI","Address2":"","formattedAddress":"PO Box 981106 , El Paso , TX 79998"},{"Id":"60054","City":"El Paso ","Zip":"79998","State":"TX","GatewayName":"","Address":"PO Box 981106","IdType":"PI","Address2":"","formattedAddress":"PO Box 981106 , El Paso , TX 79998"},{"Id":"60054","City":"El Paso ","Zip":"79998","State":"TX","GatewayName":"","Address":"PO Box 981106","IdType":"PI","Address2":"","formattedAddress":"PO Box 981106 , El Paso , TX 79998"},{"Id":"60054","City":"El Paso ","Zip":"79998","State":"TX","GatewayName":"","Address":"PO Box 981106","IdType":"PI","Address2":"","formattedAddress":"PO Box 981106 , El Paso , TX 79998"},{"Id":"60054","City":"El Paso ","Zip":"79998","State":"TX","GatewayName":"","Address":"PO Box 981106","IdType":"PI","Address2":"","formattedAddress":"PO Box 981106 , El Paso , TX 79998"},{"Id":"60054","City":"El Paso ","Zip":"79998","State":"TX","GatewayName":"","Address":"PO Box 981106","IdType":"PI","Address2":"","formattedAddress":"PO Box 981106 , El Paso , TX 79998"},{"Id":"60054","City":"El Paso ","Zip":"79998","State":"TX","GatewayName":"","Address":"PO Box 981106","IdType":"PI","Address2":"","formattedAddress":"PO Box 981106 , El Paso , TX 79998"},{"Id":"60054","City":"El Paso ","Zip":"79998","State":"TX","GatewayName":"","Address":"PO Box 981106","IdType":"PI","Address2":"","formattedAddress":"PO Box 981106 , El Paso , TX 79998"},{"Id":"60054","City":"El Paso ","Zip":"79998","State":"TX","GatewayName":"","Address":"PO Box 981106","IdType":"PI","Address2":"","formattedAddress":"PO Box 981106 , El Paso , TX 79998"},{"Id":"60054","City":"El Paso ","Zip":"79998","State":"TX","GatewayName":"","Address":"PO Box 981106","IdType":"PI","Address2":"","formattedAddress":"PO Box 981106 , El Paso , TX 79998"},{"Id":"60054","City":"El Paso ","Zip":"79998","State":"TX","GatewayName":"","Address":"PO Box 981106","IdType":"PI","Address2":"","formattedAddress":"PO Box 981106 , El Paso , TX 79998"},{"Id":"60054","City":"El Paso ","Zip":"79998","State":"TX","GatewayName":"","Address":"PO Box 981106","IdType":"PI","Address2":"","formattedAddress":"PO Box 981106 , El Paso , TX 79998"},{"Id":"60054","City":"El Paso ","Zip":"79998","State":"TX","GatewayName":"","Address":"PO Box 981106","IdType":"PI","Address2":"","formattedAddress":"PO Box 981106 , El Paso , TX 79998"},{"Id":"60054","City":"El Paso ","Zip":"79998","State":"TX","GatewayName":"","Address":"PO Box 981106","IdType":"PI","Address2":"","formattedAddress":"PO Box 981106 , El Paso , TX 79998"},{"Id":"60054","City":"El Paso ","Zip":"79998","State":"TX","GatewayName":"","Address":"PO Box 981106","IdType":"PI","Address2":"","formattedAddress":"PO Box 981106 , El Paso , TX 79998"},{"Id":"60054","City":"El Paso ","Zip":"79998","State":"TX","GatewayName":"","Address":"PO Box 981106","IdType":"PI","Address2":"","formattedAddress":"PO Box 981106 , El Paso , TX 79998"},{"Id":"60054","City":"El Paso ","Zip":"79998","State":"TX","GatewayName":"","Address":"PO Box 981106","IdType":"PI","Address2":"","formattedAddress":"PO Box 981106 , El Paso , TX 79998"},{"Id":"60054","City":"El Paso ","Zip":"79998","State":"TX","GatewayName":"","Address":"PO Box 981106","IdType":"PI","Address2":"","formattedAddress":"PO Box 981106 , El Paso , TX 79998"},{"Id":"60054","City":"El Paso ","Zip":"79998","State":"TX","GatewayName":"","Address":"PO Box 981106","IdType":"PI","Address2":"","formattedAddress":"PO Box 981106 , El Paso , TX 79998"},{"Id":"60054","City":"El Paso ","Zip":"79998","State":"TX","GatewayName":"","Address":"PO Box 981106","IdType":"PI","Address2":"","formattedAddress":"PO Box 981106 , El Paso , TX 79998"},{"Id":"60054","City":"El Paso ","Zip":"79998","State":"TX","GatewayName":"","Address":"PO Box 981106","IdType":"PI","Address2":"","formattedAddress":"PO Box 981106 , El Paso , TX 79998"},{"Id":"60054","City":"El Paso ","Zip":"79998","State":"TX","GatewayName":"","Address":"PO Box 981106","IdType":"PI","Address2":"","formattedAddress":"PO Box 981106 , El Paso , TX 79998"},{"Id":"60054","City":"El Paso ","Zip":"79998","State":"TX","GatewayName":"","Address":"PO Box 981106","IdType":"PI","Address2":"","formattedAddress":"PO Box 981106 , El Paso , TX 79998"},{"Id":"60054","City":"El Paso ","Zip":"79998","State":"TX","GatewayName":"","Address":"PO Box 981106","IdType":"PI","Address2":"","formattedAddress":"PO Box 981106 , El Paso , TX 79998"},{"Id":"60054","City":"El Paso ","Zip":"79998","State":"TX","GatewayName":"","Address":"PO Box 981106","IdType":"PI","Address2":"","formattedAddress":"PO Box 981106 , El Paso , TX 79998"},{"Id":"60054","City":"El Paso ","Zip":"79998","State":"TX","GatewayName":"","Address":"PO Box 981106","IdType":"PI","Address2":"","formattedAddress":"PO Box 981106 , El Paso , TX 79998"},{"Id":"60054","City":"El Paso ","Zip":"79998","State":"TX","GatewayName":"","Address":"PO Box 981106","IdType":"PI","Address2":"","formattedAddress":"PO Box 981106 , El Paso , TX 79998"},{"Id":"60054","City":"El Paso ","Zip":"79998","State":"TX","GatewayName":"","Address":"PO Box 981106","IdType":"PI","Address2":"","formattedAddress":"PO Box 981106 , El Paso , TX 79998"},{"Id":"60054","City":"El Paso ","Zip":"79998","State":"TX","GatewayName":"","Address":"PO Box 981106","IdType":"PI","Address2":"","formattedAddress":"PO Box 981106 , El Paso , TX 79998"},{"Id":"60054","City":"El Paso ","Zip":"79998","State":"TX","GatewayName":"","Address":"PO Box 981106","IdType":"PI","Address2":"","formattedAddress":"PO Box 981106 , El Paso , TX 79998"},{"Id":"60054","City":"El Paso ","Zip":"79998","State":"TX","GatewayName":"","Address":"PO Box 981106","IdType":"PI","Address2":"","formattedAddress":"PO Box 981106 , El Paso , TX 79998"},{"Id":"60054","City":"El Paso ","Zip":"79998","State":"TX","GatewayName":"","Address":"PO Box 981106","IdType":"PI","Address2":"","formattedAddress":"PO Box 981106 , El Paso , TX 79998"},{"Id":"60054","City":"El Paso ","Zip":"79998","State":"TX","GatewayName":"","Address":"PO Box 981106","IdType":"PI","Address2":"","formattedAddress":"PO Box 981106 , El Paso , TX 79998"},{"Id":"60054","City":"El Paso ","Zip":"79998","State":"TX","GatewayName":"","Address":"PO Box 981106","IdType":"PI","Address2":"","formattedAddress":"PO Box 981106 , El Paso , TX 79998"},{"Id":"60054","City":"El Paso ","Zip":"79998","State":"TX","GatewayName":"","Address":"PO Box 981106","IdType":"PI","Address2":"","formattedAddress":"PO Box 981106 , El Paso , TX 79998"},{"Id":"60054","City":"El Paso ","Zip":"79998","State":"TX","GatewayName":"","Address":"PO Box 981106","IdType":"PI","Address2":"","formattedAddress":"PO Box 981106 , El Paso , TX 79998"},{"Id":"60054","City":"El Paso ","Zip":"79998","State":"TX","GatewayName":"","Address":"PO Box 981106","IdType":"PI","Address2":"","formattedAddress":"PO Box 981106 , El Paso , TX 79998"},{"Id":"60054","City":"El Paso ","Zip":"79998","State":"TX","GatewayName":"","Address":"PO Box 981106","IdType":"PI","Address2":"","formattedAddress":"PO Box 981106 , El Paso , TX 79998"},{"Id":"60054","City":"El Paso ","Zip":"79998","State":"TX","GatewayName":"","Address":"PO Box 981106","IdType":"PI","Address2":"","formattedAddress":"PO Box 981106 , El Paso , TX 79998"},{"Id":"60054","City":"El Paso ","Zip":"79998","State":"TX","GatewayName":"","Address":"PO Box 981106","IdType":"PI","Address2":"","formattedAddress":"PO Box 981106 , El Paso , TX 79998"},{"Id":"60054","City":"El Paso ","Zip":"79998","State":"TX","GatewayName":"","Address":"PO Box 981106","IdType":"PI","Address2":"","formattedAddress":"PO Box 981106 , El Paso , TX 79998"},{"Id":"60054","City":"El Paso ","Zip":"79998","State":"TX","GatewayName":"","Address":"PO Box 981106","IdType":"PI","Address2":"","formattedAddress":"PO Box 981106 , El Paso , TX 79998"},{"Id":"60054","City":"El Paso ","Zip":"79998","State":"TX","GatewayName":"","Address":"PO Box 981106","IdType":"PI","Address2":"","formattedAddress":"PO Box 981106 , El Paso , TX 79998"},{"Id":"60054","City":"El Paso ","Zip":"79998","State":"TX","GatewayName":"","Address":"PO Box 981106","IdType":"PI","Address2":"","formattedAddress":"PO Box 981106 , El Paso , TX 79998"},{"Id":"60054","City":"El Paso ","Zip":"79998","State":"TX","GatewayName":"","Address":"PO Box 981106","IdType":"PI","Address2":"","formattedAddress":"PO Box 981106 , El Paso , TX 79998"},{"Id":"60054","City":"El Paso ","Zip":"79998","State":"TX","GatewayName":"","Address":"PO Box 981106","IdType":"PI","Address2":"","formattedAddress":"PO Box 981106 , El Paso , TX 79998"},{"Id":"60054","City":"El Paso ","Zip":"79998","State":"TX","GatewayName":"","Address":"PO Box 981106","IdType":"PI","Address2":"","formattedAddress":"PO Box 981106 , El Paso , TX 79998"},{"Id":"60054","City":"El Paso ","Zip":"79998","State":"TX","GatewayName":"","Address":"PO Box 981106","IdType":"PI","Address2":"","formattedAddress":"PO Box 981106 , El Paso , TX 79998"},{"Id":"60054","City":"El Paso ","Zip":"79998","State":"TX","GatewayName":"","Address":"PO Box 981106","IdType":"PI","Address2":"","formattedAddress":"PO Box 981106 , El Paso , TX 79998"},{"Id":"60054","City":"El Paso ","Zip":"79998","State":"TX","GatewayName":"","Address":"PO Box 981106","IdType":"PI","Address2":"","formattedAddress":"PO Box 981106 , El Paso , TX 79998"},{"Id":"60054","City":"El Paso ","Zip":"79998","State":"TX","GatewayName":"","Address":"PO Box 981106","IdType":"PI","Address2":"","formattedAddress":"PO Box 981106 , El Paso , TX 79998"},{"Id":"60054","City":"El Paso ","Zip":"79998","State":"TX","GatewayName":"","Address":"PO Box 981106","IdType":"PI","Address2":"","formattedAddress":"PO Box 981106 , El Paso , TX 79998"},{"Id":"60054","City":"El Paso ","Zip":"79998","State":"TX","GatewayName":"","Address":"PO Box 981106","IdType":"PI","Address2":"","formattedAddress":"PO Box 981106 , El Paso , TX 79998"},{"Id":"60054","City":"El Paso ","Zip":"79998","State":"TX","GatewayName":"","Address":"PO Box 981106","IdType":"PI","Address2":"","formattedAddress":"PO Box 981106 , El Paso , TX 79998"},{"Id":"60054","City":"El Paso ","Zip":"79998","State":"TX","GatewayName":"","Address":"PO Box 981106","IdType":"PI","Address2":"","formattedAddress":"PO Box 981106 , El Paso , TX 79998"},{"Id":"60054","City":"El Paso ","Zip":"79998","State":"TX","GatewayName":"","Address":"PO Box 981106","IdType":"PI","Address2":"","formattedAddress":"PO Box 981106 , El Paso , TX 79998"},{"Id":"60054","City":"El Paso ","Zip":"79998","State":"TX","GatewayName":"","Address":"PO Box 981106","IdType":"PI","Address2":"","formattedAddress":"PO Box 981106 , El Paso , TX 79998"},{"Id":"60054","City":"El Paso ","Zip":"79998","State":"TX","GatewayName":"","Address":"PO Box 981106","IdType":"PI","Address2":"","formattedAddress":"PO Box 981106 , El Paso , TX 79998"},{"Id":"60054","City":"El Paso ","Zip":"79998","State":"TX","GatewayName":"","Address":"PO Box 981106","IdType":"PI","Address2":"","formattedAddress":"PO Box 981106 , El Paso , TX 79998"},{"Id":"60054","City":"El Paso ","Zip":"79998","State":"TX","GatewayName":"","Address":"PO Box 981106","IdType":"PI","Address2":"","formattedAddress":"PO Box 981106 , El Paso , TX 79998"},{"Id":"60054","City":"El Paso ","Zip":"79998","State":"TX","GatewayName":"","Address":"PO Box 981106","IdType":"PI","Address2":"","formattedAddress":"PO Box 981106 , El Paso , TX 79998"},{"Id":"60054","City":"El Paso ","Zip":"79998","State":"TX","GatewayName":"","Address":"PO Box 981106","IdType":"PI","Address2":"","formattedAddress":"PO Box 981106 , El Paso , TX 79998"},{"Id":"60054","City":"El Paso ","Zip":"79998","State":"TX","GatewayName":"","Address":"PO Box 981106","IdType":"PI","Address2":"","formattedAddress":"PO Box 981106 , El Paso , TX 79998"},{"Id":"60054","City":"El Paso ","Zip":"79998","State":"TX","GatewayName":"","Address":"PO Box 981106","IdType":"PI","Address2":"","formattedAddress":"PO Box 981106 , El Paso , TX 79998"},{"Id":"60054","City":"El Paso ","Zip":"79998","State":"TX","GatewayName":"","Address":"PO Box 981106","IdType":"PI","Address2":"","formattedAddress":"PO Box 981106 , El Paso , TX 79998"},{"Id":"60054","City":"El Paso ","Zip":"79998","State":"TX","GatewayName":"","Address":"PO Box 981106","IdType":"PI","Address2":"","formattedAddress":"PO Box 981106 , El Paso , TX 79998"},{"Id":"60054","City":"El Paso ","Zip":"79998","State":"TX","GatewayName":"","Address":"PO Box 981106","IdType":"PI","Address2":"","formattedAddress":"PO Box 981106 , El Paso , TX 79998"},{"Id":"60054","City":"El Paso ","Zip":"79998","State":"TX","GatewayName":"","Address":"PO Box 981106","IdType":"PI","Address2":"","formattedAddress":"PO Box 981106 , El Paso , TX 79998"},{"Id":"60054","City":"El Paso ","Zip":"79998","State":"TX","GatewayName":"","Address":"PO Box 981106","IdType":"PI","Address2":"","formattedAddress":"PO Box 981106 , El Paso , TX 79998"},{"Id":"60054","City":"El Paso ","Zip":"79998","State":"TX","GatewayName":"","Address":"PO Box 981106","IdType":"PI","Address2":"","formattedAddress":"PO Box 981106 , El Paso , TX 79998"},{"Id":"60054","City":"El Paso ","Zip":"79998","State":"TX","GatewayName":"","Address":"PO Box 981106","IdType":"PI","Address2":"","formattedAddress":"PO Box 981106 , El Paso , TX 79998"},{"Id":"60054","City":"El Paso ","Zip":"79998","State":"TX","GatewayName":"","Address":"PO Box 981106","IdType":"PI","Address2":"","formattedAddress":"PO Box 981106 , El Paso , TX 79998"},{"Id":"60054","City":"El Paso ","Zip":"79998","State":"TX","GatewayName":"","Address":"PO Box 981106","IdType":"PI","Address2":"","formattedAddress":"PO Box 981106 , El Paso , TX 79998"},{"Id":"60054","City":"El Paso ","Zip":"79998","State":"TX","GatewayName":"","Address":"PO Box 981106","IdType":"PI","Address2":"","formattedAddress":"PO Box 981106 , El Paso , TX 79998"},{"Id":"60054","City":"El Paso ","Zip":"79998","State":"TX","GatewayName":"","Address":"PO Box 981106","IdType":"PI","Address2":"","formattedAddress":"PO Box 981106 , El Paso , TX 79998"},{"Id":"60054","City":"El Paso ","Zip":"79998","State":"TX","GatewayName":"","Address":"PO Box 981106","IdType":"PI","Address2":"","formattedAddress":"PO Box 981106 , El Paso , TX 79998"},{"Id":"60054","City":"El Paso ","Zip":"79998","State":"TX","GatewayName":"","Address":"PO Box 981106","IdType":"PI","Address2":"","formattedAddress":"PO Box 981106 , El Paso , TX 79998"},{"Id":"60054","City":"El Paso ","Zip":"79998","State":"TX","GatewayName":"","Address":"PO Box 981106","IdType":"PI","Address2":"","formattedAddress":"PO Box 981106 , El Paso , TX 79998"},{"Id":"60054","City":"El Paso ","Zip":"79998","State":"TX","GatewayName":"","Address":"PO Box 981106","IdType":"PI","Address2":"","formattedAddress":"PO Box 981106 , El Paso , TX 79998"},{"Id":"60054","City":"El Paso ","Zip":"79998","State":"TX","GatewayName":"","Address":"PO Box 981106","IdType":"PI","Address2":"","formattedAddress":"PO Box 981106 , El Paso , TX 79998"},{"Id":"60054","City":"El Paso ","Zip":"79998","State":"TX","GatewayName":"","Address":"PO Box 981106","IdType":"PI","Address2":"","formattedAddress":"PO Box 981106 , El Paso , TX 79998"},{"Id":"60054","City":"El Paso ","Zip":"79998","State":"TX","GatewayName":"","Address":"PO Box 981106","IdType":"PI","Address2":"","formattedAddress":"PO Box 981106 , El Paso , TX 79998"},{"Id":"60054","City":"El Paso ","Zip":"79998","State":"TX","GatewayName":"","Address":"PO Box 981106","IdType":"PI","Address2":"","formattedAddress":"PO Box 981106 , El Paso , TX 79998"},{"Id":"60054","City":"El Paso ","Zip":"79998","State":"TX","GatewayName":"","Address":"PO Box 981106","IdType":"PI","Address2":"","formattedAddress":"PO Box 981106 , El Paso , TX 79998"},{"Id":"60054","City":"El Paso ","Zip":"79998","State":"TX","GatewayName":"","Address":"PO Box 981106","IdType":"PI","Address2":"","formattedAddress":"PO Box 981106 , El Paso , TX 79998"},{"Id":"60054","City":"El Paso ","Zip":"79998","State":"TX","GatewayName":"","Address":"PO Box 981106","IdType":"PI","Address2":"","formattedAddress":"PO Box 981106 , El Paso , TX 79998"},{"Id":"60054","City":"El Paso ","Zip":"79998","State":"TX","GatewayName":"","Address":"PO Box 981106","IdType":"PI","Address2":"","formattedAddress":"PO Box 981106 , El Paso , TX 79998"},{"Id":"60054","City":"El Paso ","Zip":"79998","State":"TX","GatewayName":"","Address":"PO Box 981106","IdType":"PI","Address2":"","formattedAddress":"PO Box 981106 , El Paso , TX 79998"},{"Id":"60054","City":"El Paso ","Zip":"79998","State":"TX","GatewayName":"","Address":"PO Box 981106","IdType":"PI","Address2":"","formattedAddress":"PO Box 981106 , El Paso , TX 79998"}],"requesttime":15,"cacheDate":"07/09/2024 07:19:18","querytime":0,"result":"ok"}